
    {
      "objectName": "ONEWEB-0615",
      "objectId": "2022-166AL",
      "noradId": 54676,
      "epochUtc": "2026-03-16T05:17:29.751072Z",
      "meanMotionRevPerDay": 13.21827568,
      "eccentricity": 0.00015994,
      "inclinationDeg": 87.9164,
      "raanDeg": 262.5225,
      "argPerigeeDeg": 93.6934,
      "meanAnomalyDeg": 266.4383,
      "bstar": 0.00034605457,
      "meanMotionDot": 0.00000156,
      "meanMotionDdot": 0,
      "elementSetNo": 999,
      "revAtEpoch": 15916
    },
    {
      "objectName": "ONEWEB-0532",
      "objectId": "2023-004A",
      "noradId": 55140,
      "epochUtc": "2026-03-15T22:27:16.625376Z",
      "meanMotionRevPerDay": 13.17648802,
      "eccentricity": 0.00018158,
      "inclinationDeg": 87.9172,
      "raanDeg": 24.3807,
      "argPerigeeDeg": 67.7614,
      "meanAnomalyDeg": 292.371,
      "bstar": -0.000007766697,
      "meanMotionDot": 1e-7,
      "meanMotionDdot": 0,
      "elementSetNo": 999,
      "revAtEpoch": 15530
    },
    {
      "objectName": "ONEWEB-0560",
      "objectId": "2023-004F",
      "noradId": 55145,
      "epochUtc": "2026-03-16T04:50:46.394304Z",
      "meanMotionRevPerDay": 13.18686233,
      "eccentricity": 0.00020372,
      "inclinationDeg": 87.924,
      "raanDeg": 353.9367,
      "argPerigeeDeg": 82.1529,
      "meanAnomalyDeg": 277.9835,
      "bstar": 0.000206589,
      "meanMotionDot": 9.4e-7,
      "meanMotionDdot": 0,
      "elementSetNo": 999,
      "revAtEpoch": 15745
    },
    {
      "objectName": "ONEWEB-0571",
      "objectId": "2023-004L",
      "noradId": 55150,
      "epochUtc": "2026-03-16T04:08:00.586464Z",
      "meanMotionRevPerDay": 13.1868551,
      "eccentricity": 0.00030272,
      "inclinationDeg": 87.9244,
      "raanDeg": 353.9514,
      "argPerigeeDeg": 73.5495,
      "meanAnomalyDeg": 286.597,
      "bstar": 0.000069915505,
      "meanMotionDot": 4e-7,
      "meanMotionDdot": 0,
      "elementSetNo": 999,
      "revAtEpoch": 15744
    },
    {
      "objectName": "ONEWEB-0614",
      "objectId": "2023-004S",
      "noradId": 55156,
      "epochUtc": "2026-03-15T22:05:34.449504Z",
      "meanMotionRevPerDay": 13.11397412,
      "eccentricity": 0.00015959,
      "inclinationDeg": 87.8872,
      "raanDeg": 39.6218,
      "argPerigeeDeg": 76.1627,
      "meanAnomalyDeg": 283.9678,
      "bstar": 0.010193709,
      "meanMotionDot": 0.00003626,
      "meanMotionDdot": 0,
      "elementSetNo": 999,
      "revAtEpoch": 15361
    },
    {
      "objectName": "ONEWEB-0620",
      "objectId": "2023-004X",
      "noradId": 55161,
      "epochUtc": "2026-03-16T03:10:45.172992Z",
      "meanMotionRevPerDay": 13.11414047,
      "eccentricity": 0.0002126,
      "inclinationDeg": 87.8869,
      "raanDeg": 39.5785,
      "argPerigeeDeg": 77.6504,
      "meanAnomalyDeg": 282.4862,
      "bstar": 0.00054539067,
      "meanMotionDot": 0.00000206,
      "meanMotionDdot": 0,
      "elementSetNo": 999,
      "revAtEpoch": 15363
    },
    {
      "objectName": "ONEWEB-0626",
      "objectId": "2023-004AD",
      "noradId": 55167,
      "epochUtc": "2026-03-16T03:04:16.889664Z",
      "meanMotionRevPerDay": 13.17646903,
      "eccentricity": 0.00023301,
      "inclinationDeg": 87.9159,
      "raanDeg": 24.3538,
      "argPerigeeDeg": 78.8373,
      "meanAnomalyDeg": 281.302,
      "bstar": -0.000015284755,
      "meanMotionDot": 7e-8,
      "meanMotionDdot": 0,
      "elementSetNo": 999,
      "revAtEpoch": 15532
    },
    {
      "objectName": "ONEWEB-0709",
      "objectId": "2023-004AJ",
      "noradId": 55172,
      "epochUtc": "2026-03-16T04:45:59.320800Z",
      "meanMotionRevPerDay": 13.11415591,
      "eccentricity": 0.00027327,
      "inclinationDeg": 87.887,
      "raanDeg": 39.5688,
      "argPerigeeDeg": 82.7375,
      "meanAnomalyDeg": 277.4064,
      "bstar": 0.0015358366,
      "meanMotionDot": 0.00000557,
      "meanMotionDdot": 0,
      "elementSetNo": 999,
      "revAtEpoch": 15368
    },
    {
      "objectName": "ONEWEB-0717",
      "objectId": "2023-004AQ",
      "noradId": 55178,
      "epochUtc": "2026-03-16T01:58:40.984320Z",
      "meanMotionRevPerDay": 13.17649156,
      "eccentricity": 0.0001812,
      "inclinationDeg": 87.9171,
      "raanDeg": 24.3356,
      "argPerigeeDeg": 57.9216,
      "meanAnomalyDeg": 302.2092,
      "bstar": 0.000093521819,
      "meanMotionDot": 4.9e-7,
      "meanMotionDdot": 0,
      "elementSetNo": 999,
      "revAtEpoch": 15537
    },
    {
      "objectName": "ONEWEB-0562",
      "objectId": "2023-029D",
      "noradId": 55799,
      "epochUtc": "2026-03-16T02:49:49.260000Z",
      "meanMotionRevPerDay": 13.20770593,
      "eccentricity": 0.00008094,
      "inclinationDeg": 87.915,
      "raanDeg": 293.043,
      "argPerigeeDeg": 78.7692,
      "meanAnomalyDeg": 281.3532,
      "bstar": 0.000084085525,
      "meanMotionDot": 4.7e-7,
      "meanMotionDdot": 0,
      "elementSetNo": 999,
      "revAtEpoch": 14886
    },
    {
      "objectName": "ONEWEB-0640",
      "objectId": "2023-029J",
      "noradId": 55804,
      "epochUtc": "2026-03-16T03:47:56.808096Z",
      "meanMotionRevPerDay": 13.14503024,
      "eccentricity": 0.0001408,
      "inclinationDeg": 87.8965,
      "raanDeg": 308.3163,
      "argPerigeeDeg": 110.5707,
      "meanAnomalyDeg": 249.5574,
      "bstar": 0.0004348187,
      "meanMotionDot": 0.00000174,
      "meanMotionDdot": 0,
      "elementSetNo": 999,
      "revAtEpoch": 14719
    },
    {
      "objectName": "ONEWEB-0646",
      "objectId": "2023-029Q",
      "noradId": 55810,
      "epochUtc": "2026-03-16T04:21:30.747168Z",
      "meanMotionRevPerDay": 13.19724633,
      "eccentricity": 0.00020036,
      "inclinationDeg": 87.922,
      "raanDeg": 323.5124,
      "argPerigeeDeg": 84.65,
      "meanAnomalyDeg": 275.4861,
      "bstar": 0.00039440536,
      "meanMotionDot": 0.00000171,
      "meanMotionDdot": 0,
      "elementSetNo": 999,
      "revAtEpoch": 14662
    },
    {
      "objectName": "ONEWEB-0653",
      "objectId": "2023-029V",
      "noradId": 55815,
      "epochUtc": "2026-03-16T03:18:15.481152Z",
      "meanMotionRevPerDay": 13.14503395,
      "eccentricity": 0.00014708,
      "inclinationDeg": 87.8977,
      "raanDeg": 308.2788,
      "argPerigeeDeg": 83.3479,
      "meanAnomalyDeg": 276.7819,
      "bstar": -0.00043244911,
      "meanMotionDot": -0.00000148,
      "meanMotionDdot": 0,
      "elementSetNo": 999,
      "revAtEpoch": 14717
    }