ONEWEB-0615             
1 54676U 22166AL  26075.22048323  .00000156  00000+0  34605-3 0  9991
2 54676  87.9164 262.5225 0001599  93.6934 266.4383 13.21827568159164
ONEWEB-0532             
1 55140U 23004A   26074.93560909  .00000010  00000+0 -77667-5 0  9993
2 55140  87.9172  24.3807 0001815  67.7614 292.3710 13.17648802155309
ONEWEB-0560             
1 55145U 23004F   26075.20192586  .00000094  00000+0  20659-3 0  9999
2 55145  87.9240 353.9367 0002037  82.1529 277.9835 13.18686233157451
ONEWEB-0571             
1 55150U 23004L   26075.17222901  .00000040  00000+0  69916-4 0  9997
2 55150  87.9244 353.9514 0003027  73.5495 286.5970 13.18685510157443
ONEWEB-0614             
1 55156U 23004S   26074.92053761  .00003626  00000+0  10194-1 0  9995
2 55156  87.8872  39.6218 0001595  76.1627 283.9678 13.11397412153613
ONEWEB-0620             
1 55161U 23004X   26075.13246728  .00000206  00000+0  54539-3 0  9996
2 55161  87.8869  39.5785 0002126  77.6504 282.4862 13.11414047153639
ONEWEB-0626             
1 55167U 23004AD  26075.12797326  .00000007  00000+0 -15285-4 0  9992
2 55167  87.9159  24.3538 0002330  78.8373 281.3020 13.17646903155326
ONEWEB-0709             
1 55172U 23004AJ  26075.19860325  .00000557  00000+0  15358-2 0  9993
2 55172  87.8870  39.5688 0002732  82.7375 277.4064 13.11415591153689
ONEWEB-0717             
1 55178U 23004AQ  26075.08241880  .00000049  00000+0  93522-4 0  9993
2 55178  87.9171  24.3356 0001812  57.9216 302.2092 13.17649156155378
ONEWEB-0562             
1 55799U 23029D   26075.11793125  .00000047  00000+0  84086-4 0  9990
2 55799  87.9150 293.0430 0000809  78.7692 281.3532 13.20770593148862
ONEWEB-0640             
1 55804U 23029J   26075.15829639  .00000174  00000+0  43482-3 0  9996
2 55804  87.8965 308.3163 0001408 110.5707 249.5574 13.14503024147196
ONEWEB-0646             
1 55810U 23029Q   26075.18160587  .00000171  00000+0  39441-3 0  9993
2 55810  87.9220 323.5124 0002003  84.6500 275.4861 13.19724633146628
ONEWEB-0653             
1 55815U 23029V   26075.13767918 -.00000148  00000+0 -43245-3 0  9997
2 55815  87.8977 308.2788 0001470  83.3479 276.7819 13.14503395147178
